1 08820U 76039A   03145.56357134  .00000015  00000-0  10000-3 0  9293
2 08820 109.8073 173.8599 0044584 306.2235  53.4368  6.38664506375611
